STARLINK-1138           
1 45178U 20012A   20177.91668981 -.00005041  00000-0 -32720-3 0  9994
2 45178  52.9989  36.5526 0001428  98.7747  64.3043 15.05564660  1800
STARLINK-1143           
1 45179U 20012B   20177.91668981 -.00009213  00000-0 -61384-3 0  9998
2 45179  52.9956  36.5685 0001448  87.7195  57.3051 15.05585897  1804
STARLINK-1192           
1 45180U 20012C   20177.91668981 -.00005212  00000-0 -33863-3 0  9996
2 45180  53.0003  36.5500 0001596  95.5662 103.4647 15.05599195  1807
STARLINK-1200           
1 45181U 20012D   20177.91668981 -.00003537  00000-0 -22365-3 0  9990
2 45181  52.9981  36.5513 0001494  91.2469 125.8296 15.05583248  1800
STARLINK-1201           
1 45182U 20012E   20177.91668981  .00014437  00000-0  10081-2 0  9991
2 45182  53.0049  16.5292 0001362  85.0993  26.1240 15.05576328  1811
STARLINK-1202           
1 45183U 20012F   20177.91668981 -.00010033  00000-0 -67053-3 0  9994
2 45183  52.9999  36.5500 0001581  87.0868 310.0008 15.05570411  1818
STARLINK-1205           
1 45184U 20012G   20177.91668981  .00019936  00000-0  13836-2 0  9993
2 45184  53.0006  16.5450 0001569  92.6184 342.5649 15.05578779  1817
STARLINK-1216           
1 45185U 20012H   20178.00001157  .00027884  00000-0  19265-2 0  9994
2 45185  53.0014  36.1741 0001511  93.1129  71.8289 15.05558035 20298
STARLINK-1224           
1 45186U 20012J   20178.00001157  .00024460  00000-0  16921-2 0  9998
2 45186  52.9989  36.1782 0001668  94.2817 340.7227 15.05578932 20290
STARLINK-1225           
1 45187U 20012K   20178.00001157  .00027276  00000-0  18837-2 0  9995
2 45187  52.9991  36.1771 0001402  92.0153 324.8947 15.05585167 20040
STARLINK-1228           
1 45188U 20012L   20178.00001157  .00027001  00000-0  18656-2 0  9991
2 45188  52.9947 356.2135 0001517  77.9737 127.1798 15.05571598 20512
STARLINK-1230           
1 45189U 20012M   20177.91668981 -.00005886  00000-0 -38520-3 0  9997
2 45189  52.9984  36.5526 0001501  85.8959 221.1691 15.05573513  1800
STARLINK-1234           
1 45190U 20012N   20178.00001157  .00025023  00000-0  17315-2 0  9997
2 45190  52.9990 356.1734 0001302  89.4769 151.7025 15.05557313 20528
STARLINK-1236           
1 45191U 20012P   20178.00001157  .00029152  00000-0  20120-2 0  9993
2 45191  52.9991  36.1754 0001510  94.6716 268.3315 15.05573470 20291
STARLINK-1237           
1 45192U 20012Q   20178.00001157  .00027215  00000-0  18813-2 0  9998
2 45192  52.9995  36.1777 0001638 101.3240  45.5889 15.05549599 20005
STARLINK-1239           
1 45193U 20012R   20178.00001157  .00028793  00000-0  19876-2 0  9991
2 45193  53.0013  36.1736 0001641  89.3295 111.5598 15.05573506 20009
STARLINK-1240           
1 45194U 20012S   20178.00001157  .00039660  00000-0  27277-2 0  9991
2 45194  52.9999  36.1762 0001196  99.4898  83.4816 15.05554270 20003
STARLINK-1241           
1 45195U 20012T   20178.00001157  .00032194  00000-0  22202-2 0  9990
2 45195  53.0011  36.1688 0001459  85.2386 133.6749 15.05553329 20002
STARLINK-1244           
1 45196U 20012U   20178.00001157  .00031085  00000-0  21427-2 0  9997
2 45196  53.0000  36.1787 0001516  95.9767 176.9789 15.05588106 20045
STARLINK-1269           
1 45197U 20012V   20178.00001157  .00031504  00000-0  21727-2 0  9997
2 45197  52.9987  36.1767 0001681  93.3032 233.5799 15.05562245 20032
STARLINK-1154           
1 45198U 20012W   20177.91668981  .00014395  00000-0  10055-2 0  9992
2 45198  53.0013  16.5472 0001673  83.6289 225.5452 15.05566378  1809
STARLINK-1197           
1 45199U 20012X   20177.91668981  .00015159  00000-0  10581-2 0  9996
2 45199  52.9991  16.5490 0001640  82.4703 208.6965 15.05553079  1800
STARLINK-1198           
1 45200U 20012Y   20177.91668981  .00015802  00000-0  11017-2 0  9999
2 45200  52.9998  16.5533 0001404  82.3414 190.8540 15.05565532  1802
STARLINK-1199           
1 45201U 20012Z   20177.91668981  .00019246  00000-0  13363-2 0  9992
2 45201  52.9993  16.5545 0001507  75.1187 180.0637 15.05583933  1805
STARLINK-1203           
1 45202U 20012AA  20177.91301155  .00002307  00000-0  17724-3 0  9996
2 45202  52.9853  36.5396 0001962  99.0227 261.0983 15.05633693 20963
STARLINK-1204           
1 45203U 20012AB  20177.91668981  .00017178  00000-0  11942-2 0  9997
2 45203  52.9974  16.5572 0001654  87.4481  60.5923 15.05612769  1802
STARLINK-1206           
1 45204U 20012AC  20178.00001157  .00045300  00000-0  31086-2 0  9994
2 45204  53.0027  16.1681 0001503  79.3332 105.7550 15.05576094 20280
STARLINK-1208           
1 45205U 20012AD  20177.91668981  .00012585  00000-0  88159-3 0  9991
2 45205  53.0003  16.5460 0001494  83.3739 261.8450 15.05569952  1804
STARLINK-1209           
1 45206U 20012AE  20177.91668981  .00035476  00000-0  27785-2 0  9993
2 45206  53.0005 355.4441 0001320  75.2219 269.8103 15.00702388  1813
STARLINK-1210           
1 45207U 20012AF  20177.91668981  .00019182  00000-0  13332-2 0  9993
2 45207  52.9990  16.5534 0001628  82.0293 155.1646 15.05548635  1808
STARLINK-1211           
1 45208U 20012AG  20177.91668981  .00017403  00000-0  12107-2 0  9997
2 45208  53.0001  16.5513 0001655  83.0468 118.2056 15.05578429  1805
STARLINK-1218           
1 45209U 20012AH  20178.00001157  .00043982  00000-0  30194-2 0  9992
2 45209  53.0006  16.1704 0001872  78.3515  70.7511 15.05574442 20282
STARLINK-1219           
1 45210U 20012AJ  20177.91668981  .00017048  00000-0  11865-2 0  9995
2 45210  52.9983  16.5511 0001767  85.0690 134.1914 15.05575428  1802
STARLINK-1231           
1 45212U 20012AL  20177.91668981  .00011742  00000-0  82376-3 0  9998
2 45212  53.0013  16.5453 0001558  87.9268 293.2802 15.05576432  1815
STARLINK-1232           
1 45213U 20012AM  20177.91668981  .00012042  00000-0  84418-3 0  9992
2 45213  53.0020  16.5465 0001967  82.3485 280.8365 15.05582890  1812
STARLINK-1233           
1 45214U 20012AN  20178.00001157  .00044659  00000-0  30650-2 0  9997
2 45214  52.9985  16.1831 0001335  78.0969 178.9924 15.05577790 20274
STARLINK-1245           
1 45215U 20012AP  20178.00001157  .00043419  00000-0  29817-2 0  9994
2 45215  53.0001  16.1765 0001883  88.5254 186.6126 15.05568584 20274
STARLINK-1254           
1 45216U 20012AQ  20178.00001157  .00047249  00000-0  32403-2 0  9995
2 45216  52.9998  16.1703 0001862  81.0807  49.9869 15.05579701 20288
STARLINK-1271           
1 45217U 20012AR  20178.00001157  .00037974  00000-0  26139-2 0  9999
2 45217  53.0007  16.1714 0001901  93.1939 325.9213 15.05544270 20281
STARLINK-1105           
1 45218U 20012AS  20177.91668981  .04132247  00000-0  19128+0 0  9993
2 45218  52.9973 356.7301 0003205  22.2697 325.7366 15.15718362 20553
STARLINK-1187           
1 45219U 20012AT  20177.91668981  .04485098  00000-0  26571+0 0  9999
2 45219  53.0011 356.5727 0002725 330.0995 303.8448 15.06367744  1805
STARLINK-1188           
1 45220U 20012AU  20177.91668981  .01851834  00000-0  90556-1 0  9999
2 45220  52.9935 356.6878 0001801 174.3655   3.3287 15.14338607 20544
STARLINK-1189           
1 45221U 20012AV  20177.91668981  .02243928  00000-0  10912+0 0  9996
2 45221  52.9933 356.6950 0001270 207.3687 345.9712 15.14428969  1814
STARLINK-1191           
1 45222U 20012AW  20177.91668981  .01384750  00000-0  68526-1 0  9991
2 45222  52.9955 356.6891 0001950 154.9340   6.0118 15.14340778  1817
STARLINK-1212           
1 45223U 20012AX  20177.91668981  .04014782  00000-0  18174+0 0  9992
2 45223  52.9990 356.7324 0003605  28.9752 333.9871 15.15931542 20551
STARLINK-1214           
1 45224U 20012AY  20177.91668981  .00959268  00000-0  48152-1 0  9997
2 45224  52.9959 356.7762 0003181 112.5249   1.1586 15.13963418  1813
STARLINK-1215           
1 45225U 20012AZ  20177.91668981  .04847298  00000-0  22456+0 0  9998
2 45225  52.9940 356.7086 0002862 340.0005 307.0575 15.14982470 20543
STARLINK-1217           
1 45226U 20012BA  20178.00001157  .01682940  00000-0  81599-1 0  9999
2 45226  52.9967 356.3093 0002959  32.7575 317.9761 15.14968810 20539
STARLINK-1221           
1 45227U 20012BB  20178.00001157  .02234794  00000-0  11055+0 0  9999
2 45227  52.9974 356.2999 0001666 284.5024 315.3866 15.13834008 20530
STARLINK-1222           
1 45228U 20012BC  20177.91668981  .00881273  00000-0  44326-1 0  9990
2 45228  52.9949 356.7290 0003257 132.2524 357.0415 15.14135087  1819
STARLINK-1226           
1 45229U 20012BD  20178.00001157  .00636336  00000-0  30994-1 0  9992
2 45229  52.9984 356.3233 0003633  71.7937 325.5385 15.15689242 20562
STARLINK-1227           
1 45230U 20012BE  20178.00001157  .00772171  00000-0  37386-1 0  9994
2 45230  53.0005 356.3375 0003835  82.5245 329.9682 15.15828244 20568
STARLINK-1229           
1 45231U 20012BF  20178.00001157  .01999223  00000-0  97471-1 0  9996
2 45231  52.9959 356.3061 0002779  20.7624 314.1836 15.14740446 20561
STARLINK-1235           
1 45232U 20012BG  20178.00001157  .00024173  00000-0  16730-2 0  9999
2 45232  53.0018 356.1639 0001382  76.8890   2.2383 15.05568741 20541
STARLINK-1238           
1 45233U 20012BH  20178.00001157  .00045337  00000-0  31116-2 0  9990
2 45233  52.9942  16.2076 0001494  89.9445 131.1512 15.05570345 20279
STARLINK-1243           
1 45234U 20012BJ  20178.00001157  .00027631  00000-0  19098-2 0  9993
2 45234  52.9983  36.1781 0001447  89.0468 291.8515 15.05546930 20037
STARLINK-1246           
1 45235U 20012BK  20178.00001157  .00024252  00000-0  16781-2 0  9996
2 45235  52.9986  36.1764 0001567  81.0700  11.9082 15.05575355 20039
STARLINK-1247           
1 45236U 20012BL  20178.00001157  .00658517  00000-0  31690-1 0  9999
2 45236  53.0004 356.3345 0003875  91.1295 336.7716 15.16035213 20566
STARLINK-1270           
1 45237U 20012BM  20178.00001157  .02398132  00000-0  11556+0 0  9993
2 45237  52.9968 356.3067 0002732   5.4791 313.6773 15.14510700 20569
